SENTINEL-3A             
1 41335U 16011A   26201.24771547  .00000038  00000+0  33686-4 0  9993
2 41335  98.6233 268.1538 0001313  89.0056 271.1275 14.26740662542776
SENTINEL-3B             
1 43437U 18039A   26201.15073905  .00000041  00000+0  34871-4 0  9994
2 43437  98.6232 268.2072 0001251 118.9743 241.1563 14.26737265428821
